start=new Date('2022-11-27T00:00:00.000Z').valueOf();
sats=[{"SITE":"AFETR","NORAD_CAT_ID":"52602","APOAPSIS":"541.314","MEAN_ELEMENT_THEORY":"SGP4","PERIOD":"95.437","MEAN_ANOMALY":"320.6281","GP_ID":"218894237","COUNTRY_CODE":"US","CLASSIFICATION_TYPE":"U","LAUNCH_DATE":"2022-05-14","FILE":"3671048","MEAN_MOTION_DDOT":"0.0000000000000","PERIAPSIS":"538.139","REF_FRAME":"TEME","ECCENTRICITY":"0.00022950","ELEMENT_SET_NO":"999","TLE_LINE2":"2 52602  53.2177 260.9141 0002295  39.4878 320.6281 15.08846256 30675","REV_AT_EPOCH":"3067","OBJECT_NAME":"STARLINK-4012","ARG_OF_PERICENTER":"39.4878","MEAN_MOTION_DOT":"0.00002055","TLE_LINE1":"1 52602U 22052E   22330.85032959  .00002055  00000-0  14718-3 0  9993","EPOCH":"2022-11-26T20:24:28.476576","EPHEMERIS_TYPE":"0","BSTAR":"0.00014718000000","RCS_SIZE":"LARGE","RA_OF_ASC_NODE":"260.9141","OBJECT_ID":"2022-052E","CENTER_NAME":"EARTH","INCLINATION":"53.2177","TIME_SYSTEM":"UTC","MEAN_MOTION":"15.08846256","DECAY_DATE":null,"OBJECT_TYPE":"PAYLOAD","SEMIMAJOR_AXIS":"6917.861"},{"FILE":"3671048","LAUNCH_DATE":"2022-05-14","CLASSIFICATION_TYPE":"U","COUNTRY_CODE":"US","GP_ID":"218894986","MEAN_ANOMALY":"323.2743","MEAN_ELEMENT_THEORY":"SGP4","APOAPSIS":"541.484","PERIOD":"95.437","NORAD_CAT_ID":"52603","SITE":"AFETR","EPOCH":"2022-11-26T20:03:16.740288","TLE_LINE1":"1 52603U 22052F   22330.83561042  .00000606  00000-0  56162-4 0  9992","MEAN_MOTION_DOT":"0.00000606","ARG_OF_PERICENTER":"36.8424","OBJECT_NAME":"STARLINK-4016","REV_AT_EPOCH":"3067","TLE_LINE2":"2 52603  53.2183 260.9921 0002552  36.8424 323.2743 15.08848792 30672","ECCENTRICITY":"0.00025520","ELEMENT_SET_NO":"999","MEAN_MOTION_DDOT":"0.0000000000000","PERIAPSIS":"537.953","REF_FRAME":"TEME","INCLINATION":"53.2183","CENTER_NAME":"EARTH","OBJECT_ID":"2022-052F","RA_OF_ASC_NODE":"260.9921","RCS_SIZE":"LARGE","BSTAR":"0.00005616200000","EPHEMERIS_TYPE":"0","SEMIMAJOR_AXIS":"6917.854","OBJECT_TYPE":"PAYLOAD","DECAY_DATE":null,"MEAN_MOTION":"15.08848792","TIME_SYSTEM":"UTC"},{"DECAY_DATE":null,"MEAN_MOTION":"15.08844696","TIME_SYSTEM":"UTC","SEMIMAJOR_AXIS":"6917.866","OBJECT_TYPE":"PAYLOAD","CENTER_NAME":"EARTH","OBJECT_ID":"2022-052G","INCLINATION":"53.2187","BSTAR":"0.00009464900000","EPHEMERIS_TYPE":"0","RA_OF_ASC_NODE":"261.2428","RCS_SIZE":"LARGE","TLE_LINE1":"1 52604U 22052G   22330.77673178  .00001218  00000-0  94649-4 0  9992","EPOCH":"2022-11-26T18:38:29.625792","TLE_LINE2":"2 52604  53.2187 261.2428 0003226  29.0702 331.0469 15.08844696 29865","ECCENTRICITY":"0.00032260","ELEMENT_SET_NO":"999","PERIAPSIS":"537.499","MEAN_MOTION_DDOT":"0.0000000000000","REF_FRAME":"TEME","MEAN_MOTION_DOT":"0.00001218","ARG_OF_PERICENTER":"29.0702","OBJECT_NAME":"STARLINK-4013","REV_AT_EPOCH":"2986","MEAN_ANOMALY":"331.0469","PERIOD":"95.437","APOAPSIS":"541.963","MEAN_ELEMENT_THEORY":"SGP4","LAUNCH_DATE":"2022-05-14","FILE":"3671048","CLASSIFICATION_TYPE":"U","COUNTRY_CODE":"US","GP_ID":"218893735","NORAD_CAT_ID":"52604","SITE":"AFETR"},{"SITE":"AFETR","NORAD_CAT_ID":"52605","MEAN_ANOMALY":"318.0897","MEAN_ELEMENT_THEORY":"SGP4","APOAPSIS":"541.342","PERIOD":"95.437","FILE":"3670770","LAUNCH_DATE":"2022-05-14","GP_ID":"218861470","COUNTRY_CODE":"US","CLASSIFICATION_TYPE":"U","ELEMENT_SET_NO":"999","ECCENTRICITY":"0.00023250","TLE_LINE2":"2 52605  53.2177 267.2826 0002325  42.0273 318.0897 15.08843982 29755","REF_FRAME":"TEME","PERIAPSIS":"538.125","MEAN_MOTION_DDOT":"0.0000000000000","ARG_OF_PERICENTER":"42.0273","MEAN_MOTION_DOT":"0.00001937","REV_AT_EPOCH":"2975","OBJECT_NAME":"STARLINK-4000","TLE_LINE1":"1 52605U 22052H   22330.54627602  .00001937  00000-0  13974-3 0  9998","EPOCH":"2022-11-26T13:06:38.248128","EPHEMERIS_TYPE":"0","BSTAR":"0.00013974000000","RCS_SIZE":"LARGE","RA_OF_ASC_NODE":"267.2826","CENTER_NAME":"EARTH","OBJECT_ID":"2022-052H","INCLINATION":"53.2177","DECAY_DATE":null,"TIME_SYSTEM":"UTC","MEAN_MOTION":"15.08843982","SEMIMAJOR_AXIS":"6917.868","OBJECT_TYPE":"PAYLOAD"},{"CLASSIFICATION_TYPE":"U","GP_ID":"218894737","COUNTRY_CODE":"US","LAUNCH_DATE":"2022-05-14","FILE":"3671048","APOAPSIS":"541.668","PERIOD":"95.437","MEAN_ELEMENT_THEORY":"SGP4","MEAN_ANOMALY":"323.0960","NORAD_CAT_ID":"52606","SITE":"AFETR","EPOCH":"2022-11-26T20:08:34.306944","TLE_LINE1":"1 52606U 22052J   22330.83928596  .00000675  00000-0  60514-4 0  9998","OBJECT_NAME":"STARLINK-3928","REV_AT_EPOCH":"2987","MEAN_MOTION_DOT":"0.00000675","ARG_OF_PERICENTER":"37.0225","MEAN_MOTION_DDOT":"0.0000000000000","PERIAPSIS":"537.777","REF_FRAME":"TEME","TLE_LINE2":"2 52606  53.2187 260.9659 0002812  37.0225 323.0960 15.08847400 29872","ELEMENT_SET_NO":"999","ECCENTRICITY":"0.00028120","INCLINATION":"53.2187","OBJECT_ID":"2022-052J","CENTER_NAME":"EARTH","RA_OF_ASC_NODE":"260.9659","RCS_SIZE":"LARGE","BSTAR":"0.00006051400000","EPHEMERIS_TYPE":"0","OBJECT_TYPE":"PAYLOAD","SEMIMAJOR_AXIS":"6917.858","MEAN_MOTION":"15.08847400","TIME_SYSTEM":"UTC","DECAY_DATE":null},{"DECAY_DATE":null,"MEAN_MOTION":"15.08849284","TIME_SYSTEM":"UTC","SEMIMAJOR_AXIS":"6917.852","OBJECT_TYPE":"PAYLOAD","BSTAR":"0.00016450000000","EPHEMERIS_TYPE":"0","RA_OF_ASC_NODE":"266.1222","RCS_SIZE":"LARGE","CENTER_NAME":"EARTH","OBJECT_ID":"2022-052K","INCLINATION":"53.2179","TLE_LINE2":"2 52607  53.2179 266.1222 0002322  33.2404 326.8733 15.08849284 29782","ELEMENT_SET_NO":"999","ECCENTRICITY":"0.00023220","PERIAPSIS":"538.111","REF_FRAME":"TEME","MEAN_MOTION_DDOT":"0.0000000000000","MEAN_MOTION_DOT":"0.00002331","ARG_OF_PERICENTER":"33.2404","OBJECT_NAME":"STARLINK-3947","REV_AT_EPOCH":"2978","TLE_LINE1":"1 52607U 22052K   22330.80387212  .00002331  00000-0  16450-3 0  9990","EPOCH":"2022-11-26T19:17:34.551168","NORAD_CAT_ID":"52607","SITE":"AFETR","MEAN_ANOMALY":"326.8733","PERIOD":"95.437","APOAPSIS":"541.323","MEAN_ELEMENT_THEORY":"SGP4","FILE":"3671048","LAUNCH_DATE":"2022-05-14","CLASSIFICATION_TYPE":"U","GP_ID":"218894487","COUNTRY_CODE":"US"},{"SEMIMAJOR_AXIS":"6917.846","OBJECT_TYPE":"PAYLOAD","DECAY_DATE":null,"TIME_SYSTEM":"UTC","MEAN_MOTION":"15.08851256","INCLINATION":"53.2178","CENTER_NAME":"EARTH","OBJECT_ID":"2022-052L","RCS_SIZE":"LARGE","RA_OF_ASC_NODE":"261.0007","EPHEMERIS_TYPE":"0","BSTAR":"0.00018912000000","EPOCH":"2022-11-26T19:57:58.783968","TLE_LINE1":"1 52608U 22052L   22330.83193037  .00002724  00000-0  18912-3 0  9995","ARG_OF_PERICENTER":"30.5469","MEAN_MOTION_DOT":"0.00002724","REV_AT_EPOCH":"2987","OBJECT_NAME":"STARLINK-3979","ECCENTRICITY":"0.00027340","ELEMENT_SET_NO":"999","TLE_LINE2":"2 52608  53.2178 261.0007 0002734  30.5469 329.5682 15.08851256 29870","PERIAPSIS":"537.820","REF_FRAME":"TEME","MEAN_MOTION_DDOT":"0.0000000000000","LAUNCH_DATE":"2022-05-14","FILE":"3671048","GP_ID":"218893237","COUNTRY_CODE":"US","CLASSIFICATION_TYPE":"U","MEAN_ANOMALY":"329.5682","APOAPSIS":"541.602","PERIOD":"95.437","MEAN_ELEMENT_THEORY":"SGP4","SITE":"AFETR","NORAD_CAT_ID":"52608"},{"TIME_SYSTEM":"UTC","MEAN_MOTION":"15.08848833","DECAY_DATE":null,"OBJECT_TYPE":"PAYLOAD","SEMIMAJOR_AXIS":"6917.853","OBJECT_ID":"2022-052M","CENTER_NAME":"EARTH","INCLINATION":"53.2162","EPHEMERIS_TYPE":"0","BSTAR":"0.00005737800000","RCS_SIZE":"LARGE","RA_OF_ASC_NODE":"261.0405","TLE_LINE1":"1 52609U 22052M   22330.82552166  .00000625  00000-0  57378-4 0  9995","EPOCH":"2022-11-26T19:48:45.071424","REF_FRAME":"TEME","PERIAPSIS":"537.690","MEAN_MOTION_DDOT":"0.0000000000000","ECCENTRICITY":"0.00029320","ELEMENT_SET_NO":"999","TLE_LINE2":"2 52609  53.2162 261.0405 0002932  31.8536 328.2633 15.08848833 29874","REV_AT_EPOCH":"2987","OBJECT_NAME":"STARLINK-3997","ARG_OF_PERICENTER":"31.8536","MEAN_MOTION_DOT":"0.00000625","APOAPSIS":"541.747","PERIOD":"95.437","MEAN_ELEMENT_THEORY":"SGP4","MEAN_ANOMALY":"328.2633","GP_ID":"218893986","COUNTRY_CODE":"US","CLASSIFICATION_TYPE":"U","FILE":"3671048","LAUNCH_DATE":"2022-05-14","SITE":"AFETR","NORAD_CAT_ID":"52609"},{"MEAN_MOTION_DDOT":"0.0000000000000","PERIAPSIS":"537.154","REF_FRAME":"TEME","TLE_LINE2":"2 52610  53.2184 266.1091 0003688  30.6094 329.5113 15.08853191 29793","ECCENTRICITY":"0.00036880","ELEMENT_SET_NO":"999","OBJECT_NAME":"STARLINK-3998","REV_AT_EPOCH":"2979","MEAN_MOTION_DOT":"0.00000905","ARG_OF_PERICENTER":"30.6094","TLE_LINE1":"1 52610U 22052N   22330.80754815  .00000905  00000-0  74953-4 0  9999","EPOCH":"2022-11-26T19:22:52.160160","NORAD_CAT_ID":"52610","SITE":"AFETR","MEAN_ELEMENT_THEORY":"SGP4","APOAPSIS":"542.256","PERIOD":"95.437","MEAN_ANOMALY":"329.5113","CLASSIFICATION_TYPE":"U","GP_ID":"218894238","COUNTRY_CODE":"US","LAUNCH_DATE":"2022-05-14","FILE":"3671048","MEAN_MOTION":"15.08853191","TIME_SYSTEM":"UTC","DECAY_DATE":null,"OBJECT_TYPE":"PAYLOAD","SEMIMAJOR_AXIS":"6917.840","BSTAR":"0.00007495300000","EPHEMERIS_TYPE":"0","RA_OF_ASC_NODE":"266.1091","RCS_SIZE":"LARGE","OBJECT_ID":"2022-052N","CENTER_NAME":"EARTH","INCLINATION":"53.2184"},{"OBJECT_NAME":"STARLINK-3980","REV_AT_EPOCH":"2980","MEAN_MOTION_DOT":"0.00002536","ARG_OF_PERICENTER":"33.1074","REF_FRAME":"TEME","PERIAPSIS":"537.753","MEAN_MOTION_DDOT":"0.0000000000000","TLE_LINE2":"2 52611  53.2183 265.8447 0002842  33.1074 327.0096 15.08848468 29807","ECCENTRICITY":"0.00028420","ELEMENT_SET_NO":"999","EPOCH":"2022-11-26T20:47:39.264288","TLE_LINE1":"1 52611U 22052P   22330.86642667  .00002536  00000-0  17737-3 0  9995","NORAD_CAT_ID":"52611","SITE":"AFETR","CLASSIFICATION_TYPE":"U","COUNTRY_CODE":"US","GP_ID":"218894987","FILE":"3671048","LAUNCH_DATE":"2022-05-14","PERIOD":"95.437","APOAPSIS":"541.686","MEAN_ELEMENT_THEORY":"SGP4","MEAN_ANOMALY":"327.0096","OBJECT_TYPE":"PAYLOAD","SEMIMAJOR_AXIS":"6917.855","MEAN_MOTION":"15.08848468","TIME_SYSTEM":"UTC","DECAY_DATE":null,"RA_OF_ASC_NODE":"265.8447","RCS_SIZE":"LARGE","BSTAR":"0.00017737000000","EPHEMERIS_TYPE":"0","INCLINATION":"53.2183","OBJECT_ID":"2022-052P","CENTER_NAME":"EARTH"}];
